NUSAT-1 (FRESCO)        
1 41557U 16033B   22297.95290138  .00019061  00000+0  50698-3 0  9991
2 41557  97.3903  36.1533 0009126 271.2217 221.1930 15.38231671357264
BEESAT-4                
1 41619U 16040W   22297.57534038  .00018183  00000+0  53588-3 0  9991
2 41619  97.2012 344.9403 0008620  25.2010 334.9653 15.35040137340501
CAS-2T & KS-1Q          
1 41847U 16066G   22297.70196025  .00001326  00000+0  20771-3 0  9996
2 41847  98.5372   2.1614 0363038 183.0002 176.9010 14.38821184312933
NAYIF-1 (EO-88)         
1 42017U 17008BX  22297.70333314  .00021767  00000+0  55857-3 0  9991
2 42017  97.2550   2.1928 0005422 134.5296 225.6393 15.39332933316921
ZHUHAI-1 02 (CAS-4B)    
1 42759U 17034B   22297.95836110  .00005274  00000+0  30629-3 0  9997
2 42759  43.0185 338.4129 0010012  19.3161  44.1501 15.12930300295965
ZHUHAI-1 01 (CAS-4A)    
1 42761U 17034D   22297.60379771  .00005070  00000+0  29426-3 0  9994
2 42761  43.0199 339.0657 0009915  19.0899 115.9665 15.13014477295913
MAX VALIER SAT          
1 42778U 17036P   22297.60196599  .00010992  00000+0  38969-3 0  9990
2 42778  97.1916 334.3340 0009114 217.9937 142.0662 15.29214525296628
RADFXSAT (FOX-1B)       
1 43017U 17073E   22297.68401426  .00003579  00000+0  26632-3 0  9991
2 43017  97.6565 186.5452 0246745 124.0867 238.4032 14.82348088266251
FOX-1D (AO-92)          
1 43137U 18004AC  22297.15625720  .00015843  00000+0  51325-3 0  9990
2 43137  97.3587  11.2782 0006019 262.1614  97.8944 15.32080900266034
DIWATA-2B               
1 43678U 18084H   22297.92924456  .00000951  00000+0  98598-4 0  9999
2 43678  97.9888  72.8702 0008987 212.9754 147.0923 14.92410182217162
ES'HAIL 2               
1 43700U 18090A   22297.72640583  .00000156  00000+0  00000+0 0  9999
2 43700   0.0188 237.3905 0001030 334.5631 108.4100  1.00270677 14325
FOX-1CLIFF (AO-95)      
1 43770U 18099N   22297.68701422  .00002390  00000+0  21188-3 0  9996
2 43770  97.6081   0.6346 0013382 196.9891 163.0885 14.97088095212347
ITASAT 1                
1 43786U 18099AE  22297.67094202  .00003458  00000+0  30371-3 0  9993
2 43786  97.6110   1.6020 0014416 187.7351 172.3651 14.97147450212384
JY1SAT (JO-97)          
1 43803U 18099AX  22297.44029246  .00003434  00000+0  29680-3 0  9999
2 43803  97.6058   1.1793 0014454 190.8636 169.2276 14.97781382212375
UWE-4                   
1 43880U 18111E   22297.67959879  .00004101  00000+0  34365-3 0  9996
2 43880  97.6559 201.7041 0009849 238.6397 121.3863 14.98921335209054
NEXUS (FO-99)           
1 43937U 19003F   22297.81325278  .00015902  00000+0  48077-3 0  9992
2 43937  97.1191 326.3080 0020380  54.8542 305.4607 15.34087682209784
PSAT2 (NO-104)          
1 44354U 19036R   22297.48198213  .00102696 -38361-5  64037-3 0  9991
2 44354  28.5223 354.1097 0169907   1.8193 358.3003 15.57918126184681
JAISAT-1                
1 44419U 19038F   22297.48447367  .00011368  00000+0  53496-3 0  9996
2 44419  97.6508 268.9212 0020190  50.4133 309.8880 15.19541199182638
DUCHIFAT-3              
1 44854U 19089C   22297.67771318  .00005180  00000+0  39301-3 0  9996
2 44854  36.9662  53.7921 0007109 198.5134 295.8859 15.02032298157364
CAS-6 (TIANQIN 1)       
1 44881U 19093C   22297.75766545  .00000728  00000+0  98475-4 0  9997
2 44881  97.8842  15.0621 0016081 122.2394 238.0375 14.81885994153924
RS-44 & BREEZE-KM R/B   
1 44909U 19096E   22297.66084809  .00000040  00000+0  11274-3 0  9995
2 44909  82.5192 144.4576 0217797  17.8912 342.9704 12.79716153132037
ORBITAL FACTORY 2 (OF-2)
1 45113U 19071C   22297.74906991  .00036253  00000+0  56243-3 0  9990
2 45113  51.6338 140.0598 0008678 272.1329  87.8668 15.53594477153411
HUSKYSAT-1 (HO-107)     
1 45119U 19071J   22297.61008661  .00032028  00000+0  53704-3 0  9994
2 45119  51.6344 142.0969 0008549 269.3052  90.6958 15.51493554153366
BY70-2                  
1 45857U 20042B   22297.78366025  .00008551  00000+0  10943-2 0  9993
2 45857  97.9477  13.4687 0010586  63.6556 296.5734 14.81545604124599
SALSAT                  
1 46495U 20068K   22297.83289884  .00002601  00000+0  18665-3 0  9993
2 46495  97.7416 239.2798 0015687 191.9637 168.1219 15.05134320113644
BY70-3                  
1 46839U 20079N   22297.87967317  .00039996  00000+0  74473-3 0  9991
2 46839  97.1853   8.6794 0004830 208.2234 282.8416 15.48735047110226
RADFXSAT-2 (AO-109)     
1 47311U 21002C   22297.26533186  .00014627  00000+0  53711-3 0  9996
2 47311  60.6843 236.6427 0036448  58.5890 301.8756 15.27594098 98125
UVSQ-SAT                
1 47438U 21006AB  22297.61967813  .00007088  00000+0  35860-3 0  9995
2 47438  97.4228 353.9909 0011593 178.8649 181.2613 15.17275452 96859
DIY-1 (ARDUIQUBE)       
1 47963U 21022AH  22297.71006670  .00021836  00000+0  10700-2 0  9994
2 47963  97.5182 197.8091 0018104  52.6693 307.6187 15.18016104 86523
XW-3 (CAS-9)            
1 50466U 21131B   22297.89392196  .00000289  00000+0  10911-3 0  9991
2 50466  98.5723  15.0330 0005661 120.5457 239.6289 14.38555936 43523
TEVEL-3                 
1 50988U 22002E   22297.87593775  .00008914  00000+0  46345-3 0  9995
2 50988  97.4684   2.7397 0008481 344.1398 128.9964 15.16267327 43018
TEVEL-8                 
1 50989U 22002F   22297.87581778  .00008886  00000+0  46273-3 0  9994
2 50989  97.4706   2.7729 0008434 343.2803  76.7298 15.16212408 43012
TEVEL-5                 
1 50998U 22002Q   22297.85427447  .00009429  00000+0  48260-3 0  9996
2 50998  97.4675   2.8913 0010145 337.8672 133.4790 15.16791925 43023
TEVEL-6                 
1 50999U 22002R   22297.85352531  .00009456  00000+0  48384-3 0  9995
2 50999  97.4671   2.8883 0010295 337.7154 133.6307 15.16797433 43022
TEVEL-1                 
1 51013U 22002AF  22297.87598839  .00008874  00000+0  46181-3 0  9994
2 51013  97.4678   2.7109 0008195 342.7134 106.5581 15.16238097 43015
TEVEL-7                 
1 51062U 22002CG  22297.87787976  .00008924  00000+0  46476-3 0  9993
2 51062  97.4704   2.7578 0008386 342.9307  77.5409 15.16208340 43019
TEVEL-4                 
1 51063U 22002CH  22297.87904243  .00008857  00000+0  46148-3 0  9993
2 51063  97.4694   2.7527 0008399 342.8629  76.8509 15.16193961 43017
TEVEL-2                 
1 51069U 22002CP  22297.80809692  .00008840  00000+0  45976-3 0  9994
2 51069  97.4689   2.6568 0008373 344.1711 110.1095 15.16259515 43009
GREENCUBE               
1 53106U 22080B   22291.96147202 -.00000003  00000+0  00000+0 0  9996
2 53106  70.1713  43.5209 0008810 236.5247 123.4571  6.42557698  6253
YUZGU 9 (RS3S)          
1 53308U 98067TT  22297.85730968  .00076620  00000+0  91807-3 0  9995
2 53308  51.6394  51.4165 0006152 340.2733  19.8022 15.60233935 14876
YUZGU 7 (RS1S)          
1 53309U 98067TU  22297.84885551  .00079598  00000+0  93892-3 0  9997
2 53309  51.6391  51.3563 0006272 347.1433  12.9399 15.60626662 14820
YUZGU 11 (RS5S)         
1 53310U 98067TV  22297.85650127  .00077434  00000+0  92689-3 0  9999
2 53310  51.6392  51.4110 0005853 346.1897  13.8936 15.60257869 14858
YUZGU 12 (RS6S)         
1 53311U 98067TW  22297.83844078  .00077834  00000+0  90872-3 0  9994
2 53311  51.6388  51.2855 0006412 335.1326  24.9358 15.60902867 14873
TSIOLKOVSKY-RYAZAN 1 (*)
1 53312U 98067TX  22297.84704380  .00079797  00000+0  94132-3 0  9990
2 53312  51.6398  51.3476 0006284 349.7739  10.3125 15.60623772 14811
TSIOLKOVSKY-RYAZAN 2 (*)
1 53313U 98067TY  22297.84502688  .00077673  00000+0  91859-3 0  9992
2 53313  51.6398  51.3346 0005760 348.1497  11.9360 15.60572741 14862
YUZGU 10 (RS4S)         
1 53321U 98067TZ  22297.85451246  .00078271  00000+0  93048-3 0  9992
2 53321  51.6393  51.3980 0006163 343.2781  16.8009 15.60431191 14867
RS29S (SXC3-2110 CYCLO*)
1 53373U 22096D   22297.88629714  .00012842  00000+0  50053-3 0  9999
2 53373  97.4282 198.8087 0001212  48.4629  16.5572 15.26089961 11673
RS32S (SXC3-212 MONITO*)
1 53374U 22096E   22297.88084654  .00012821  00000+0  49800-3 0  9993
2 53374  97.4278 198.8145 0000942  82.7293 342.9978 15.26204544 11673
RS34S (SXC3-218 KUZBAS*)
1 53375U 22096F   22297.88376848  .00010477  00000+0  41065-3 0  9993
2 53375  97.4282 198.8098 0000654  82.2039 340.1391 15.25956185 11672
RS23S (SXC3-21 UTMN)    
1 53376U 22096G   22297.82114609  .00010597  00000+0  41479-3 0  9995
2 53376  97.4282 198.7527 0000782 102.7570 344.4758 15.25996035 11660
RS28S (SXC3-214 MIET-A*)
1 53377U 22096H   22297.81728860  .00010678  00000+0  41778-3 0  9997
2 53377  97.4286 198.7520 0000599  76.8483 356.4893 15.26010222 11667
RS26S (KAI-1)           
1 53378U 22096J   22297.88211970  .00009232  00000+0  36290-3 0  9991
2 53378  97.4287 198.8137 0000759 115.0936 309.1978 15.25893170 11671
RS19S (SXC3-219 ISOI)   
1 53381U 22096M   22297.85841222  .00010896  00000+0  42010-3 0  9996
2 53381  97.4280 198.8440 0004468 152.2648 270.5477 15.26485803 11675
RS21S (CUBESX-HSE-2)    
1 53383U 22096P   22297.79477459  .00011044  00000+0  42547-3 0  9999
2 53383  97.4289 198.7876 0004769 151.1715 294.4545 15.26506635 11662
RS30S (SXC3-217 SIREN)  
1 53384U 22096Q   22297.79528656  .00009828  00000+0  37960-3 0  9996
2 53384  97.4284 198.7865 0004733 153.8514 293.8362 15.26453224 11668
RS20S (GEOSCAN-EDELVEIS)
1 53385U 22096R   22297.77990329  .00013527  00000+0  51235-3 0  9997
2 53385  97.4281 198.8043 0004887 153.3247 291.1686 15.27019645 11692
RS33S (SXC3-215 VIZARD) 
1 53386U 22096S   22297.88944648  .00016369  00000+0  60861-3 0  9995
2 53386  97.4281 198.9527 0005724 154.6808 265.1640 15.27585545 11709
